[{"OBJECT_NAME":"CSTP 1.2 (STC 1.2)","OBJECT_ID":"2023-091W","EPOCH":"2026-03-09T23:12:27.821952","MEAN_MOTION":15.2718076,"ECCENTRICITY":0.00204388,"INCLINATION":97.5258,"RA_OF_ASC_NODE":134.3262,"ARG_OF_PERICENTER":84.9592,"MEAN_ANOMALY":275.3979,"EPHEMERIS_TYPE":0,"CLASSIFICATION_TYPE":"U","NORAD_CAT_ID":57186,"ELEMENT_SET_NO":999,"REV_AT_EPOCH":14930,"BSTAR":0.00043035718,"MEAN_MOTION_DOT":0.00011466,"MEAN_MOTION_DDOT":0},{"OBJECT_NAME":"STARLINK-30883","OBJECT_ID":"2023-171Y","EPOCH":"2026-03-09T22:00:01.999584","MEAN_MOTION":15.26707951,"ECCENTRICITY":0.00011668,"INCLINATION":43.0021,"RA_OF_ASC_NODE":283.6097,"ARG_OF_PERICENTER":279.8259,"MEAN_ANOMALY":59.7575,"EPHEMERIS_TYPE":0,"CLASSIFICATION_TYPE":"U","NORAD_CAT_ID":58252,"ELEMENT_SET_NO":999,"REV_AT_EPOCH":578,"BSTAR":0.00036522307,"MEAN_MOTION_DOT":9.54e-5,"MEAN_MOTION_DDOT":0}]
